ASTROCAST-0403          
1 55111U 23001DG  26068.82333059  .00013959  00000+0  51317-3 0  9990
2 55111  97.5604 161.3228 0004771 338.0704  22.0330 15.28004949129377
STARLINK-31186          
1 59030U 24038H   26068.28444458 -.00001465  00000+0 -43729-4 0  9991
2 59030  43.0056  29.5244 0001163 274.0063  86.0656 15.27572946114696
